STARLINK-1991_new
1 17587C 21009AR  21326.12389315 -.00001252  00000-0 -83890-4 0  3267
2 17587  53.0538 213.1857 0002195  74.1649  67.9351 15.06394451    12
STARLINK-1991_old
1 27587C 21009AR  21325.13059013  .00010243  00000-0  68614-3 0  3259
2 27587  53.0538 217.6448 0002211  74.3021  78.0649 15.06394795    16
